{
  "type": "FeatureCollection",
  "features": [
    {
      "type": "Feature",
      "properties": {
        "norad_id": 41948,
        "name": "CARTOSAT-2D",
        "group": "resource",
        "lat": -24.174514467282318,
        "lon": 53.06899410307751,
        "alt_km": 516.9711138722123,
        "timestamp": "2025-12-18T07:01:54.245194+00:00",
        "meta_object_name": "CARTOSAT-2D",
        "meta_object_id": "2017-008A",
        "meta_epoch": "2025-12-17T23:14:08.198880",
        "meta_mean_motion": 15.19311008,
        "meta_eccentricity": 0.00050745,
        "meta_inclination": 97.4389,
        "meta_ra_of_asc_node": 49.3867,
        "meta_arg_of_pericenter": 146.8087,
        "meta_mean_anomaly": 213.3467,
        "meta_ephemeris_type": 0,
        "meta_classification_type": "U",
        "meta_norad_cat_id": 41948,
        "meta_element_set_no": 999,
        "meta_rev_at_epoch": 49006,
        "meta_bstar": 0.00022714421,
        "meta_mean_motion_dot": 4.729e-05,
        "meta_mean_motion_ddot": 0,
        "tle_line1": "1 41948U 17008A   25351.96815045  .00004729  00000+0  22714-3 0  9996",
        "tle_line2": "2 41948  97.4389  49.3867 0005074 146.8087 213.3467 15.19311008490069"
      },
      "geometry": {
        "type": "Point",
        "coordinates": [
          53.06899410307751,
          -24.174514467282318
        ]
      }
    },
    {
      "type": "Feature",
      "properties": {
        "norad_id": 42063,
        "name": "SENTINEL-2B",
        "group": "resource",
        "lat": -27.483236932838327,
        "lon": 69.16119626768852,
        "alt_km": 795.1381838780417,
        "timestamp": "2025-12-18T07:01:54.245204+00:00",
        "meta_object_name": "SENTINEL-2B",
        "meta_object_id": "2017-013A",
        "meta_epoch": "2025-12-17T22:46:11.566272",
        "meta_mean_motion": 14.30818263,
        "meta_eccentricity": 0.00011522,
        "meta_inclination": 98.5715,
        "meta_ra_of_asc_node": 64.3219,
        "meta_arg_of_pericenter": 92.9086,
        "meta_mean_anomaly": 267.2229,
        "meta_ephemeris_type": 0,
        "meta_classification_type": "U",
        "meta_norad_cat_id": 42063,
        "meta_element_set_no": 999,
        "meta_rev_at_epoch": 45872,
        "meta_bstar": 8.1445788e-05,
        "meta_mean_motion_dot": 1.7e-06,
        "meta_mean_motion_ddot": 0,
        "tle_line1": "1 42063U 17013A   25351.94874498  .00000170  00000+0  81446-4 0  9990",
        "tle_line2": "2 42063  98.5715  64.3219 0001152  92.9086 267.2229 14.30818263458722"
      },
      "geometry": {
        "type": "Point",
        "coordinates": [
          69.16119626768852,
          -27.483236932838327
        ]
      }
    },
    {
      "type": "Feature",
      "properties": {
        "norad_id": 42767,
        "name": "CARTOSAT-2E",
        "group": "resource",
        "lat": -64.38370006143859,
        "lon": -146.0417614971569,
        "alt_km": 514.0159418728035,
        "timestamp": "2025-12-18T07:01:54.245214+00:00",
        "meta_object_name": "CARTOSAT-2E",
        "meta_object_id": "2017-036C",
        "meta_epoch": "2025-12-17T23:37:55.006752",
        "meta_mean_motion": 15.19248395,
        "meta_eccentricity": 0.00023136,
        "meta_inclination": 97.4552,
        "meta_ra_of_asc_node": 49.5034,
        "meta_arg_of_pericenter": 212.8894,
        "meta_mean_anomaly": 147.2197,
        "meta_ephemeris_type": 0,
        "meta_classification_type": "U",
        "meta_norad_cat_id": 42767,
        "meta_element_set_no": 999,
        "meta_rev_at_epoch": 47063,
        "meta_bstar": 0.0001980688,
        "meta_mean_motion_dot": 4.106e-05,
        "meta_mean_motion_ddot": 0,
        "tle_line1": "1 42767U 17036C   25351.98466443  .00004106  00000+0  19807-3 0  9991",
        "tle_line2": "2 42767  97.4552  49.5034 0002313 212.8894 147.2197 15.19248395470636"
      },
      "geometry": {
        "type": "Point",
        "coordinates": [
          -146.0417614971569,
          -64.38370006143859
        ]
      }
    },
    {
      "type": "Feature",
      "properties": {
        "norad_id": 42920,
        "name": "FORMOSAT-5",
        "group": "resource",
        "lat": 15.47396891745175,
        "lon": 64.20059654482851,
        "alt_km": 724.2456886477321,
        "timestamp": "2025-12-18T07:01:54.245224+00:00",
        "meta_object_name": "FORMOSAT-5",
        "meta_object_id": "2017-049A",
        "meta_epoch": "2025-12-17T19:22:22.650240",
        "meta_mean_motion": 14.50763591,
        "meta_eccentricity": 0.00098702,
        "meta_inclination": 98.2449,
        "meta_ra_of_asc_node": 66.0252,
        "meta_arg_of_pericenter": 284.4391,
        "meta_mean_anomaly": 75.5709,
        "meta_ephemeris_type": 0,
        "meta_classification_type": "U",
        "meta_norad_cat_id": 42920,
        "meta_element_set_no": 999,
        "meta_rev_at_epoch": 44037,
        "meta_bstar": 4.625776e-05,
        "meta_mean_motion_dot": 1.38e-06,
        "meta_mean_motion_ddot": 0,
        "tle_line1": "1 42920U 17049A   25351.80720660  .00000138  00000+0  46258-4 0  9993",
        "tle_line2": "2 42920  98.2449  66.0252 0009870 284.4391  75.5709 14.50763591440373"
      },
      "geometry": {
        "type": "Point",
        "coordinates": [
          64.20059654482851,
          15.47396891745175
        ]
      }
    },
    {
      "type": "Feature",
      "properties": {
        "norad_id": 42969,
        "name": "SENTINEL-5P",
        "group": "resource",
        "lat": 35.01807504171505,
        "lon": 117.04384379796957,
        "alt_km": 824.1913246099266,
        "timestamp": "2025-12-18T07:01:54.245235+00:00",
        "meta_object_name": "SENTINEL-5P",
        "meta_object_id": "2017-064A",
        "meta_epoch": "2025-12-17T18:30:43.644672",
        "meta_mean_motion": 14.19518769,
        "meta_eccentricity": 0.00010066,
        "meta_inclination": 98.779,
        "meta_ra_of_asc_node": 290.3109,
        "meta_arg_of_pericenter": 89.6967,
        "meta_mean_anomaly": 270.4324,
        "meta_ephemeris_type": 0,
        "meta_classification_type": "U",
        "meta_norad_cat_id": 42969,
        "meta_element_set_no": 999,
        "meta_rev_at_epoch": 42382,
        "meta_bstar": 4.2650522e-05,
        "meta_mean_motion_dot": 4.6e-07,
        "meta_mean_motion_ddot": 0,
        "tle_line1": "1 42969U 17064A   25351.77133848  .00000046  00000+0  42651-4 0  9996",
        "tle_line2": "2 42969  98.7790 290.3109 0001006  89.6967 270.4324 14.19518769423820"
      },
      "geometry": {
        "type": "Point",
        "coordinates": [
          117.04384379796957,
          35.01807504171505
        ]
      }
    },
    {
      "type": "Feature",
      "properties": {
        "norad_id": 42987,
        "name": "SKYSAT-C11",
        "group": "resource",
        "lat": -65.2856906702903,
        "lon": 146.3572275418457,
        "alt_km": 431.5533249003329,
        "timestamp": "2025-12-18T07:01:54.245245+00:00",
        "meta_object_name": "SKYSAT-C11",
        "meta_object_id": "2017-068A",
        "meta_epoch": "2025-12-17T15:48:02.558880",
        "meta_mean_motion": 15.47652121,
        "meta_eccentricity": 0.00011602,
        "meta_inclination": 97.4137,
        "meta_ra_of_asc_node": 129.2724,
        "meta_arg_of_pericenter": 101.1537,
        "meta_mean_anomaly": 258.9843,
        "meta_ephemeris_type": 0,
        "meta_classification_type": "U",
        "meta_norad_cat_id": 42987,
        "meta_element_set_no": 999,
        "meta_rev_at_epoch": 45507,
        "meta_bstar": 0.0003559198,
        "meta_mean_motion_dot": 0.00018302,
        "meta_mean_motion_ddot": 0,
        "tle_line1": "1 42987U 17068A   25351.65836295  .00018302  00000+0  35592-3 0  9992",
        "tle_line2": "2 42987  97.4137 129.2724 0001160 101.1537 258.9843 15.47652121455070"
      },
      "geometry": {
        "type": "Point",
        "coordinates": [
          146.3572275418457,
          -65.2856906702903
        ]
      }
    },
    {
      "type": "Feature",
      "properties": {
        "norad_id": 42988,
        "name": "SKYSAT-C10",
        "group": "resource",
        "lat": 64.8063560852535,
        "lon": 107.06323128577849,
        "alt_km": 459.5723198449832,
        "timestamp": "2025-12-18T07:01:54.245255+00:00",
        "meta_object_name": "SKYSAT-C10",
        "meta_object_id": "2017-068B",
        "meta_epoch": "2025-12-17T19:46:24.989376",
        "meta_mean_motion": 15.32169613,
        "meta_eccentricity": 0.00054278,
        "meta_inclination": 97.4257,
        "meta_ra_of_asc_node": 122.6889,
        "meta_arg_of_pericenter": 89.4248,
        "meta_mean_anomaly": 270.7616,
        "meta_ephemeris_type": 0,
        "meta_classification_type": "U",
        "meta_norad_cat_id": 42988,
        "meta_element_set_no": 999,
        "meta_rev_at_epoch": 45457,
        "meta_bstar": 0.00028919085,
        "meta_mean_motion_dot": 8.909e-05,
        "meta_mean_motion_ddot": 0,
        "tle_line1": "1 42988U 17068B   25351.82390034  .00008909  00000+0  28919-3 0  9995",
        "tle_line2": "2 42988  97.4257 122.6889 0005427  89.4248 270.7616 15.32169613454577"
      },
      "geometry": {
        "type": "Point",
        "coordinates": [
          107.06323128577849,
          64.8063560852535
        ]
      }
    }
  ]
}